
# Worst residual: 140.11 km
# MJD 60978.000000 (2025 Oct 30  0:00)
ZTF107N = A11uqfJ = ZTF108U
1 79864U 25000ZYQ 25303.49919926  .00000000  00000-0  00000-0 0 28624
2 79864 039.0136 039.6129 6844925 206.2091 326.5919 00.84523608    07

# Worst residual: 145.46 km
# MJD 60979.000000 (2025 Oct 31  0:00)
ZTF107N = A11uqfJ = ZTF108U
1 79864U 25000ZYQ 25304.49919926  .00000000  00000-0  00000-0 0 28625
2 79864 039.1145 039.6428 6868898 206.6885 268.9931 00.84279694    06

# Worst residual: 77.13 km
# MJD 60980.000000 (2025 Nov  1  0:00)
ZTF107N = A11uqfJ = ZTF108U
1 79864U 25000ZYQ 25305.49919926  .00000000  00000-0  00000-0 0 28626
2 79864 039.2083 039.6779 6876775 207.2081 211.5188 00.84059823    03

# Worst residual: 58.68 km
# MJD 60981.000000 (2025 Nov  2  0:00)
ZTF107N = A11uqfJ = ZTF108U
1 79864U 25000ZYQ 25306.49919926  .00000000  00000-0  00000-0 0 28627
2 79864 039.2990 039.7234 6898328 207.8125 154.0569 00.84023154    02

# Worst residual: 128.04 km
# MJD 60982.000000 (2025 Nov  3  0:00)
ZTF107N = A11uqfJ = ZTF108U
1 79864U 25000ZYQ 25307.49919926  .00000000  00000-0  00000-0 0 28628
2 79864 039.3788 039.7719 6935027 208.3239 096.6869 00.84202797    02

# Worst residual: 131.80 km
# MJD 60983.000000 (2025 Nov  4  0:00)
ZTF107N = A11uqfJ = ZTF108U
1 79864U 25000ZYQ 25308.49919926  .00000000  00000-0  00000-0 0 28629
2 79864 039.4780 039.8388 6958833 208.8059 039.1567 00.84478408    04

# Worst residual: 117.29 km
# MJD 60984.000000 (2025 Nov  5  0:00)
ZTF107N = A11uqfJ = ZTF108U
1 79864U 25000ZYQ 25309.49919926  .00000000  00000-0  00000-0 0 28620
2 79864 039.5853 039.8952 6984599 209.3903 341.2220 00.84540503    04

# Worst residual: 154.40 km
# MJD 60985.000000 (2025 Nov  6  0:00)
ZTF107N = A11uqfJ = ZTF108U
1 79864U 25000ZYQ 25310.49919926  .00000000  00000-0  00000-0 0 28622
2 79864 039.6930 039.9443 7009430 209.8911 283.4522 00.84322374    00

# Worst residual: 70.97 km
# MJD 60986.000000 (2025 Nov  7  0:00)
ZTF107N = A11uqfJ = ZTF108U
1 79864U 25000ZYQ 25311.49919926  .00000000  00000-0  00000-0 0 28623
2 79864 039.7696 039.9703 7013333 210.3989 225.8945 00.84061443    04

# Worst residual: 55.85 km
# MJD 60987.000000 (2025 Nov  8  0:00)
ZTF107N = A11uqfJ = ZTF108U
1 79864U 25000ZYQ 25312.49919926  .00000000  00000-0  00000-0 0 28624
2 79864 039.8404 040.0029 7030331 211.0145 168.3664 00.84011795    09

# Worst residual: 135.70 km
# MJD 60988.000000 (2025 Nov  9  0:00)
ZTF107N = A11uqfJ = ZTF108U
1 79864U 25000ZYQ 25313.49919926  .00000000  00000-0  00000-0 0 28625
2 79864 039.9057 040.0448 7060403 211.5683 110.8928 00.84150607    05

# Worst residual: 133.62 km
# MJD 60989.000000 (2025 Nov 10  0:00)
ZTF107N = A11uqfJ = ZTF108U
1 79864U 25000ZYQ 25314.49919926  .00000000  00000-0  00000-0 0 28626
2 79864 039.9718 040.0875 7082414 212.0427 053.3976 00.84416207    06

# Worst residual: 91.94 km
# MJD 60990.000000 (2025 Nov 11  0:00)
ZTF107N = A11uqfJ = ZTF108U
1 79864U 25000ZYQ 25315.49919926  .00000000  00000-0  00000-0 0 28627
2 79864 040.0508 040.1327 7100491 212.6109 355.5013 00.84556146    04

# Worst residual: 141.86 km
# MJD 60991.000000 (2025 Nov 12  0:00)
ZTF107N = A11uqfJ = ZTF108U
1 79864U 25000ZYQ 25316.49919926  .00000000  00000-0  00000-0 0 28628
2 79864 040.1156 040.1534 7124027 213.1410 297.6481 00.84377774    09

# Worst residual: 77.87 km
# MJD 60992.000000 (2025 Nov 13  0:00)
ZTF107N = A11uqfJ = ZTF108U
1 79864U 25000ZYQ 25317.49919926  .00000000  00000-0  00000-0 0 28629
2 79864 040.1811 040.1739 7130608 213.5975 240.1339 00.84108970    01

# Worst residual: 55.67 km
# MJD 60993.000000 (2025 Nov 14  0:00)
ZTF107N = A11uqfJ = ZTF108U
1 79864U 25000ZYQ 25318.49919926  .00000000  00000-0  00000-0 0 28620
2 79864 040.2373 040.1940 7142730 214.1987 182.5596 00.84015864    01

# Worst residual: 111.32 km
# MJD 60994.000000 (2025 Nov 15  0:00)
ZTF107N = A11uqfJ = ZTF108U
1 79864U 25000ZYQ 25319.49919926  .00000000  00000-0  00000-0 0 28621
2 79864 040.2838 040.2194 7168378 214.7733 125.0597 00.84099115    04

# Worst residual: 127.66 km
# MJD 60995.000000 (2025 Nov 16  0:00)
ZTF107N = A11uqfJ = ZTF108U
1 79864U 25000ZYQ 25320.49919926  .00000000  00000-0  00000-0 0 28623
2 79864 040.3286 040.2437 7192048 215.2626 067.5616 00.84344549    06

# Worst residual: 94.03 km
# MJD 60996.000000 (2025 Nov 17  0:00)
ZTF107N = A11uqfJ = ZTF108U
1 79864U 25000ZYQ 25321.49919926  .00000000  00000-0  00000-0 0 28624
2 79864 040.3797 040.2687 7206315 215.8205 009.7066 00.84550704    01

# Worst residual: 132.14 km
# MJD 60997.000000 (2025 Nov 18  0:00)
ZTF107N = A11uqfJ = ZTF108U
1 79864U 25000ZYQ 25322.49919926  .00000000  00000-0  00000-0 0 28625
2 79864 040.4253 040.2819 7226614 216.3735 311.7654 00.84396439    06

# Worst residual: 103.78 km
# MJD 60998.000000 (2025 Nov 19  0:00)
ZTF107N = A11uqfJ = ZTF108U
1 79864U 25000ZYQ 25323.49919926  .00000000  00000-0  00000-0 0 28626
2 79864 040.4569 040.2698 7237314 216.8593 254.1631 00.84151919    04

# Worst residual: 48.25 km
# MJD 60999.000000 (2025 Nov 20  0:00)
ZTF107N = A11uqfJ = ZTF108U
1 79864U 25000ZYQ 25324.49919926  .00000000  00000-0  00000-0 0 28627
2 79864 040.4914 040.2747 7240256 217.4340 196.5545 00.84013807    05

# Worst residual: 67.12 km
# MJD 61000.000000 (2025 Nov 21  0:00)
ZTF107N = A11uqfJ = ZTF108U
1 79864U 25000ZYQ 25325.49919926  .00000000  00000-0  00000-0 0 28628
2 79864 040.5136 040.2711 7259523 218.0415 139.0046 00.84060108    04

# Worst residual: 120.38 km
# MJD 61001.000000 (2025 Nov 22  0:00)
ZTF107N = A11uqfJ = ZTF108U
1 79864U 25000ZYQ 25326.49919926  .00000000  00000-0  00000-0 0 28629
2 79864 040.5383 040.2755 7283268 218.5261 081.5677 00.84302066    06

# Worst residual: 102.44 km
# MJD 61002.000000 (2025 Nov 23  0:00)
ZTF107N = A11uqfJ = ZTF108U
1 79864U 25000ZYQ 25327.49919926  .00000000  00000-0  00000-0 0 28620
2 79864 040.5617 040.2661 7295828 219.0589 023.9294 00.84534487    05

# Worst residual: 116.87 km
# MJD 61003.000000 (2025 Nov 24  0:00)
ZTF107N = A11uqfJ = ZTF108U
1 79864U 25000ZYQ 25328.49919926  .00000000  00000-0  00000-0 0 28621
2 79864 040.5748 040.2384 7312720 219.6392 326.1850 00.84490182    00

# Worst residual: 115.05 km
# MJD 61004.000000 (2025 Nov 25  0:00)
ZTF107N = A11uqfJ = ZTF108U
1 79864U 25000ZYQ 25329.49919926  .00000000  00000-0  00000-0 0 28622
2 79864 040.5910 040.2265 7321575 220.1038 268.8356 00.84288349    04

# Worst residual: 44.02 km
# MJD 61005.000000 (2025 Nov 26  0:00)
ZTF107N = A11uqfJ = ZTF108U
1 79864U 25000ZYQ 25330.49919926  .00000000  00000-0  00000-0 0 28624
2 79864 040.5988 040.1999 7320082 220.6350 211.6995 00.84150153    02

# Worst residual: 34.65 km
# MJD 61006.000000 (2025 Nov 27  0:00)
ZTF107N = A11uqfJ = ZTF108U
1 79864U 25000ZYQ 25331.49919926  .00000000  00000-0  00000-0 0 28625
2 79864 040.6037 040.1688 7331489 221.2394 154.6788 00.84186928    06
